{
  "type": "FeatureCollection",
  "features": [
    {
      "type": "Feature",
      "properties": {
        "norad_id": 30469,
        "name": "FENGYUN 1C DEB",
        "group": "fengyun-1c-debris",
        "lat": 30.016429893829088,
        "lon": 32.04526152406159,
        "alt_km": 790.0549285976849,
        "timestamp": "2025-12-23T05:02:12.307181+00:00",
        "meta_object_name": "FENGYUN 1C DEB",
        "meta_object_id": "1999-025AGG",
        "meta_epoch": "2025-12-21T09:55:20.155008",
        "meta_mean_motion": 13.96533889,
        "meta_eccentricity": 0.01586465,
        "meta_inclination": 98.4787,
        "meta_ra_of_asc_node": 205.4451,
        "meta_arg_of_pericenter": 145.3624,
        "meta_mean_anomaly": 337.2453,
        "meta_ephemeris_type": 0,
        "meta_classification_type": "U",
        "meta_norad_cat_id": 30469,
        "meta_element_set_no": 999,
        "meta_rev_at_epoch": 95827,
        "meta_bstar": 0.00074434433,
        "meta_mean_motion_dot": 1.106e-05,
        "meta_mean_motion_ddot": 0,
        "tle_line1": "1 30469U 99025AGG 25355.41342772  .00001106  00000+0  74434-3 0  9999",
        "tle_line2": "2 30469  98.4787 205.4451 0158646 145.3624 337.2453 13.96533889958276"
      },
      "geometry": {
        "type": "Point",
        "coordinates": [
          32.04526152406159,
          30.016429893829088
        ]
      }
    },
    {
      "type": "Feature",
      "properties": {
        "norad_id": 30471,
        "name": "FENGYUN 1C DEB",
        "group": "fengyun-1c-debris",
        "lat": 12.341680914064751,
        "lon": -93.06018688359698,
        "alt_km": 814.683208024835,
        "timestamp": "2025-12-23T05:02:12.307192+00:00",
        "meta_object_name": "FENGYUN 1C DEB",
        "meta_object_id": "1999-025AGJ",
        "meta_epoch": "2025-12-22T04:35:53.205792",
        "meta_mean_motion": 14.13684093,
        "meta_eccentricity": 0.0083346,
        "meta_inclination": 99.0537,
        "meta_ra_of_asc_node": 83.9099,
        "meta_arg_of_pericenter": 227.1557,
        "meta_mean_anomaly": 161.6126,
        "meta_ephemeris_type": 0,
        "meta_classification_type": "U",
        "meta_norad_cat_id": 30471,
        "meta_element_set_no": 999,
        "meta_rev_at_epoch": 96576,
        "meta_bstar": 0.0017211309,
        "meta_mean_motion_dot": 3.315e-05,
        "meta_mean_motion_ddot": 0,
        "tle_line1": "1 30471U 99025AGJ 25356.19158803  .00003315  00000+0  17211-2 0  9991",
        "tle_line2": "2 30471  99.0537  83.9099 0083346 227.1557 161.6126 14.13684093965766"
      },
      "geometry": {
        "type": "Point",
        "coordinates": [
          -93.06018688359698,
          12.341680914064751
        ]
      }
    },
    {
      "type": "Feature",
      "properties": {
        "norad_id": 30472,
        "name": "FENGYUN 1C DEB",
        "group": "fengyun-1c-debris",
        "lat": -11.30891316456909,
        "lon": 100.40854344771004,
        "alt_km": 703.0849646778552,
        "timestamp": "2025-12-23T05:02:12.307202+00:00",
        "meta_object_name": "FENGYUN 1C DEB",
        "meta_object_id": "1999-025AGK",
        "meta_epoch": "2025-12-22T06:12:46.179648",
        "meta_mean_motion": 14.5395155,
        "meta_eccentricity": 0.00375447,
        "meta_inclination": 98.6519,
        "meta_ra_of_asc_node": 97.6813,
        "meta_arg_of_pericenter": 50.2007,
        "meta_mean_anomaly": 3.9797,
        "meta_ephemeris_type": 0,
        "meta_classification_type": "U",
        "meta_norad_cat_id": 30472,
        "meta_element_set_no": 999,
        "meta_rev_at_epoch": 98179,
        "meta_bstar": 0.002351684,
        "meta_mean_motion_dot": 9.959e-05,
        "meta_mean_motion_ddot": 0,
        "tle_line1": "1 30472U 99025AGK 25356.25886782  .00009959  00000+0  23517-2 0  9999",
        "tle_line2": "2 30472  98.6519  97.6813 0037544  50.2007   3.9797 14.53951550981794"
      },
      "geometry": {
        "type": "Point",
        "coordinates": [
          100.40854344771004,
          -11.30891316456909
        ]
      }
    },
    {
      "type": "Feature",
      "properties": {
        "norad_id": 30474,
        "name": "FENGYUN 1C DEB",
        "group": "fengyun-1c-debris",
        "lat": -19.477915287791404,
        "lon": 79.68424667297492,
        "alt_km": 754.4311859453719,
        "timestamp": "2025-12-23T05:02:12.307211+00:00",
        "meta_object_name": "FENGYUN 1C DEB",
        "meta_object_id": "1999-025AGM",
        "meta_epoch": "2025-12-21T04:56:56.893920",
        "meta_mean_motion": 14.37856671,
        "meta_eccentricity": 0.00230135,
        "meta_inclination": 98.9286,
        "meta_ra_of_asc_node": 74.4162,
        "meta_arg_of_pericenter": 336.1204,
        "meta_mean_anomaly": 78.5978,
        "meta_ephemeris_type": 0,
        "meta_classification_type": "U",
        "meta_norad_cat_id": 30474,
        "meta_element_set_no": 999,
        "meta_rev_at_epoch": 97515,
        "meta_bstar": 0.0014360517,
        "meta_mean_motion_dot": 4.299e-05,
        "meta_mean_motion_ddot": 0,
        "tle_line1": "1 30474U 99025AGM 25355.20621405  .00004299  00000+0  14361-2 0  9993",
        "tle_line2": "2 30474  98.9286  74.4162 0023013 336.1204  78.5978 14.37856671975153"
      },
      "geometry": {
        "type": "Point",
        "coordinates": [
          79.68424667297492,
          -19.477915287791404
        ]
      }
    },
    {
      "type": "Feature",
      "properties": {
        "norad_id": 30475,
        "name": "FENGYUN 1C DEB",
        "group": "fengyun-1c-debris",
        "lat": -66.85833268478854,
        "lon": 59.80345282087188,
        "alt_km": 820.5016800711501,
        "timestamp": "2025-12-23T05:02:12.307221+00:00",
        "meta_object_name": "FENGYUN 1C DEB",
        "meta_object_id": "1999-025AGN",
        "meta_epoch": "2025-12-22T19:29:29.016960",
        "meta_mean_motion": 14.15709399,
        "meta_eccentricity": 0.00429847,
        "meta_inclination": 98.7871,
        "meta_ra_of_asc_node": 38.1943,
        "meta_arg_of_pericenter": 261.5744,
        "meta_mean_anomaly": 163.8269,
        "meta_ephemeris_type": 0,
        "meta_classification_type": "U",
        "meta_norad_cat_id": 30475,
        "meta_element_set_no": 999,
        "meta_rev_at_epoch": 97094,
        "meta_bstar": 0.00070790209,
        "meta_mean_motion_dot": 1.357e-05,
        "meta_mean_motion_ddot": 0,
        "tle_line1": "1 30475U 99025AGN 25356.81214140  .00001357  00000+0  70790-3 0  9997",
        "tle_line2": "2 30475  98.7871  38.1943 0042984 261.5744 163.8269 14.15709399970947"
      },
      "geometry": {
        "type": "Point",
        "coordinates": [
          59.80345282087188,
          -66.85833268478854
        ]
      }
    },
    {
      "type": "Feature",
      "properties": {
        "norad_id": 30476,
        "name": "FENGYUN 1C DEB",
        "group": "fengyun-1c-debris",
        "lat": -64.99139889208298,
        "lon": -165.40865854331045,
        "alt_km": 798.9260104987479,
        "timestamp": "2025-12-23T05:02:12.307231+00:00",
        "meta_object_name": "FENGYUN 1C DEB",
        "meta_object_id": "1999-025AGP",
        "meta_epoch": "2025-12-21T01:19:07.603968",
        "meta_mean_motion": 14.20955213,
        "meta_eccentricity": 0.0045695,
        "meta_inclination": 99.1242,
        "meta_ra_of_asc_node": 32.5189,
        "meta_arg_of_pericenter": 275.565,
        "meta_mean_anomaly": 113.9677,
        "meta_ephemeris_type": 0,
        "meta_classification_type": "U",
        "meta_norad_cat_id": 30476,
        "meta_element_set_no": 999,
        "meta_rev_at_epoch": 96963,
        "meta_bstar": 0.0010133395,
        "meta_mean_motion_dot": 2.171e-05,
        "meta_mean_motion_ddot": 0,
        "tle_line1": "1 30476U 99025AGP 25355.05494912  .00002171  00000+0  10133-2 0  9999",
        "tle_line2": "2 30476  99.1242  32.5189 0045695 275.5650 113.9677 14.20955213969635"
      },
      "geometry": {
        "type": "Point",
        "coordinates": [
          -165.40865854331045,
          -64.99139889208298
        ]
      }
    },
    {
      "type": "Feature",
      "properties": {
        "norad_id": 30477,
        "name": "FENGYUN 1C DEB",
        "group": "fengyun-1c-debris",
        "lat": -15.073285579468699,
        "lon": -103.28773309862969,
        "alt_km": 984.7249370644022,
        "timestamp": "2025-12-23T05:02:12.307241+00:00",
        "meta_object_name": "FENGYUN 1C DEB",
        "meta_object_id": "1999-025AGQ",
        "meta_epoch": "2025-12-22T11:50:31.397280",
        "meta_mean_motion": 13.23857817,
        "meta_eccentricity": 0.04348962,
        "meta_inclination": 99.425,
        "meta_ra_of_asc_node": 78.6262,
        "meta_arg_of_pericenter": 253.6338,
        "meta_mean_anomaly": 132.848,
        "meta_ephemeris_type": 0,
        "meta_classification_type": "U",
        "meta_norad_cat_id": 30477,
        "meta_element_set_no": 999,
        "meta_rev_at_epoch": 90848,
        "meta_bstar": 0.0027367596,
        "meta_mean_motion_dot": 1.889e-05,
        "meta_mean_motion_ddot": 0,
        "tle_line1": "1 30477U 99025AGQ 25356.49341895  .00001889  00000+0  27368-2 0  9993",
        "tle_line2": "2 30477  99.4250  78.6262 0434896 253.6338 132.8480 13.23857817908487"
      },
      "geometry": {
        "type": "Point",
        "coordinates": [
          -103.28773309862969,
          -15.073285579468699
        ]
      }
    }
  ]
}